GSAT0101 (PRN E11)      
1 37846U 11060A   16091.33982089  .00000028  00000-0  00000+0 0  9994
2 37846  55.4998  84.1402 0005264 312.1718  47.7975  1.70474066 27653
GSAT0102 (PRN E12)      
1 37847U 11060B   16091.38768505  .00000028  00000-0  00000+0 0  9995
2 37847  55.5007  84.1379 0006494 297.1884 133.3860  1.70474405 27664
GSAT0103 (PRN E19)      
1 38857U 12055A   16090.79882694  .00000004  00000-0  00000+0 0  9996
2 38857  54.9440 204.3232 0003461 215.1598 144.8119  1.70473648 21573
GSAT0104 (PRN E20)      
1 38858U 12055B   16090.73330527  .00000005  00000-0  00000+0 0  9995
2 38858  54.9445 204.3236 0002520 206.9816 152.9999  1.70473705 21524
GSAT0201 (PRN E18)      
1 40128U 14050A   16090.45596811 -.00000014  00000-0  00000+0 0  9995
2 40128  50.0339  63.0160 1585734  47.7070 324.6710  1.85519397 11048
GSAT0202 (PRN E14)      
1 40129U 14050B   16090.18610032 -.00000017  00000-0  00000-0 0  9992
2 40129  50.0904  62.0071 1585842  48.8251 323.7893  1.85520030 11262
GSAT0203 (PRN E26)      
1 40544U 15017A   16091.12554200  .00000027  00000-0  00000+0 0  9995
2 40544  55.2875  84.5018 0004561 251.9397 108.0247  1.70476032  6265
GSAT0204 (PRN E22)      
1 40545U 15017B   16090.90908035  .00000026  00000-0  00000+0 0  9999
2 40545  55.2939  84.5168 0002106 246.1005 113.8911  1.70475514  6275
GSAT 0205 (PRN E24)     
1 40889U 15045A   16091.73070077 -.00000031  00000-0  00000+0 0  9996
2 40889  57.2989 324.1494 0004589   7.6313 352.4335  1.70474439  3438
GSAT 0206 (PRN E30)     
1 40890U 15045B   16090.77752587 -.00000033  00000-0  00000+0 0  9996
2 40890  57.3026 324.1661 0003144 357.3772   2.6826  1.70474480  3445
GSAT 0209 (PRN E09)     
1 41174U 15079A   16091.63241170  .00000002  00000-0  00000+0 0  9991
2 41174  54.9510 203.9889 0003656 278.7272 138.8908  1.70474088  1789
GSAT 0208 (PRN E08)     
1 41175U 15079B   16092.35516917 -.00000000  00000-0  00000+0 0  9995
2 41175  54.9524 203.9660 0002486 272.7890  93.4496  1.70474144  1794
